ONEWEB-0643             
1 55807U 23029M   26165.32775115  .00000188  00000+0  47147-3 0  9994
2 55807  87.8951 290.3001 0001815 121.5885 238.5422 13.14503518159018
ONEWEB-0644             
1 55808U 23029N   26165.43992363 -.00000020  00000+0 -82207-4 0  9997
2 55808  87.9165 305.5257 0001670 108.5636 251.5678 13.19724176158542
ONEWEB-0645             
1 55809U 23029P   26165.46203481 -.00000012  00000+0 -63354-4 0  9990
2 55809  87.9166 305.5182 0001378  97.3725 262.7564 13.19724542158545
ONEWEB-0646             
1 55810U 23029Q   26165.40360536  .00000100  00000+0  21722-3 0  9999
2 55810  87.9165 305.5301 0001718 106.9627 253.1694 13.19725545158525
ONEWEB-0648             
1 55811U 23029R   26165.37212774 -.00000113  00000+0 -34048-3 0  9997
2 55811  87.8964 290.2646 0001054 114.9199 245.2040 13.14501403159023
ONEWEB-0649             
1 55812U 23029S   26165.42886693  .00000091  00000+0  19456-3 0  9990
2 55812  87.9167 305.5229 0001587 100.1735 259.9576 13.19725389158561
ONEWEB-0650             
1 55813U 23029T   26165.42411758  .00000058  00000+0  11241-3 0  9994
2 55813  87.9166 305.5264 0001503 113.9680 246.1610 13.19725073158533
ONEWEB-0652             
1 55814U 23029U   26165.35310054  .00000102  00000+0  23992-3 0  9990
2 55814  87.8960 290.2756 0002039  98.8797 261.2564 13.14504598158994
ONEWEB-0653             
1 55815U 23029V   26165.41337142  .00000258  00000+0  66027-3 0  9993
2 55815  87.8961 290.2615 0001886  97.2347 262.8997 13.14503220159037
ONEWEB-0654             
1 55816U 23029W   26165.40861520  .00000282  00000+0  72536-3 0  9994
2 55816  87.8960 290.2585 0002146  93.5048 266.6327 13.14503954159055
ONEWEB-0656             
1 55817U 23029X   26165.55292191  .00000028  00000+0  36184-4 0  9991
2 55817  87.9195 274.9546 0002308  92.9972 267.1425 13.20773053160808
ONEWEB-0657             
1 55818U 23029Y   26165.41939932  .00000068  00000+0  13821-3 0  9994
2 55818  87.9167 305.5260 0002510 104.1718 255.9694 13.19724713158549
ONEWEB-0658             
1 55819U 23029Z   26165.41465844  .00000095  00000+0  20490-3 0  9991
2 55819  87.9175 305.5020 0001633 109.9360 250.1948 13.19724803158554
ONEWEB-0660             
1 55820U 23029AA  26165.38641235 -.00000065  00000+0 -21100-3 0  9997
2 55820  87.8970 290.2560 0001571  96.4625 263.6683 13.14503866159030
ONEWEB-0661             
1 55821U 23029AB  26165.26907494  .00000194  00000+0  48805-3 0  9999
2 55821  87.8953 290.3246 0001651  92.8593 267.2726 13.14502702159000
ONEWEB-0662             
1 55822U 23029AC  26165.38007345 -.00000158  00000+0 -46090-3 0  9995
2 55822  87.8950 290.3088 0001577  96.7180 263.4129 13.14503002159069
ONEWEB-0663             
1 55823U 23029AD  26165.35955859  .00000033  00000+0  47937-4 0  9997
2 55823  87.9196 275.0649 0001525 104.9409 255.1893 13.20868788160773
ONEWEB-0664             
1 55824U 23029AE  26165.53944970  .00000093  00000+0  19635-3 0  9999
2 55824  87.9181 275.0103 0001832  86.0994 274.0348 13.20770890160796
ONEWEB-0665             
1 55825U 23029AF  26165.41813985  .00000210  00000+0  53132-3 0  9999
2 55825  87.8954 290.2758 0001547 100.5043 259.6261 13.14502595159046
ONEWEB-0666             
1 55826U 23029AG  26165.53271752  .00000000  00000+0 -32061-4 0  9990
2 55826  87.9181 275.0016 0002653 106.5231 253.6194 13.20771700160800
ONEWEB-0667             
1 55827U 23029AH  26165.52767281  .00000057  00000+0  10897-3 0  9990
2 55827  87.9197 274.9602 0001814  97.7839 262.3501 13.20771790160796
ONEWEB-0669             
1 55828U 23029AJ  26165.06807793 -.00000053  00000+0 -16235-3 0  9993
2 55828  87.9190 275.0631 0002298  88.0781 272.0616 13.20771623160734
ONEWEB-0670             
1 55829U 23029AK  26165.39593753  .00000060  00000+0  12608-3 0  9994
2 55829  87.8949 290.2976 0001697  88.4227 271.7097 13.14502983159065
ONEWEB-0671             
1 55830U 23029AL  26165.40990878  .00000004  00000+0 -21188-4 0  9990
2 55830  87.9167 305.5290 0001679  96.2447 263.8877 13.19724526158533
ONEWEB-0672             
1 55831U 23029AM  26165.29029117  .00000049  00000+0  89158-4 0  9996
2 55831  87.9192 275.0120 0002239  99.8216 260.3170 13.20772185160763
ONEWEB-0673             
1 55832U 23029AN  26165.38700742  .00000031  00000+0  44586-4 0  9994
2 55832  87.9173 305.5251 0001725  95.5660 264.5669 13.19727188158534
ONEWEB-0674             
1 55833U 23029AP  26165.36421302  .00000023  00000+0  26687-4 0  9998
2 55833  87.8952 290.2806 0001725  87.1434 272.9893 13.14503844159046
ONEWEB-0675             
1 55834U 23029AQ  26165.40202131  .00000085  00000+0  17944-3 0  9994
2 55834  87.9166 305.5321 0002101 104.5182 255.6184 13.19725136158551
ONEWEB-0720             
1 55835U 23029AR  26165.39411752  .00000077  00000+0  16106-3 0  9994
2 55835  87.9165 305.5337 0001591 103.0160 257.1150 13.19725056158472
ONEWEB-0537             
1 56046U 23043A   26165.45870919  .00000120  00000+0  28014-3 0  9996
2 56046  87.9097 229.3134 0002272  99.6743 260.4645 13.16594874158603
ONEWEB-0538             
1 56047U 23043B   26165.45237682  .00000036  00000+0  61180-4 0  9999
2 56047  87.9099 229.3171 0002116 105.5248 254.6117 13.16594318158614
