OBJECT_NAME,OBJECT_ID,EPOCH,MEAN_MOTION,ECCENTRICITY,INCLINATION,RA_OF_ASC_NODE,ARG_OF_PERICENTER,MEAN_ANOMALY,EPHEMERIS_TYPE,CLASSIFICATION_TYPE,NORAD_CAT_ID,ELEMENT_SET_NO,REV_AT_EPOCH,BSTAR,MEAN_MOTION_DOT,MEAN_MOTION_DDOT
ONEWEB-0643,2023-029M,2026-06-14T07:51:57.699360,13.14503518,.0001815,87.8951,290.3001,121.5885,238.5422,0,U,55807,999,15901,.47147E-3,.188E-5,0
ONEWEB-0644,2023-029N,2026-06-14T10:33:29.401632,13.19724176,.000167,87.9165,305.5257,108.5636,251.5678,0,U,55808,999,15854,-.82207E-4,-.2E-6,0
ONEWEB-0645,2023-029P,2026-06-14T11:05:19.807584,13.19724542,.0001378,87.9166,305.5182,97.3725,262.7564,0,U,55809,999,15854,-.63354E-4,-.12E-6,0
ONEWEB-0646,2023-029Q,2026-06-14T09:41:11.503104,13.19725545,.0001718,87.9165,305.5301,106.9627,253.1694,0,U,55810,999,15852,.21722E-3,.1E-5,0
ONEWEB-0648,2023-029R,2026-06-14T08:55:51.836736,13.14501403,.0001054,87.8964,290.2646,114.9199,245.2040,0,U,55811,999,15902,-.34048E-3,-.113E-5,0
ONEWEB-0649,2023-029S,2026-06-14T10:17:34.102752,13.19725389,.0001587,87.9167,305.5229,100.1735,259.9576,0,U,55812,999,15856,.19456E-3,.91E-6,0
ONEWEB-0650,2023-029T,2026-06-14T10:10:43.758912,13.19725073,.0001503,87.9166,305.5264,113.9680,246.1610,0,U,55813,999,15853,.11241E-3,.58E-6,0
ONEWEB-0652,2023-029U,2026-06-14T08:28:27.886656,13.14504598,.0002039,87.8960,290.2756,98.8797,261.2564,0,U,55814,999,15899,.23992E-3,.102E-5,0
ONEWEB-0653,2023-029V,2026-06-14T09:55:15.290688,13.14503220,.0001886,87.8961,290.2615,97.2347,262.8997,0,U,55815,999,15903,.66027E-3,.258E-5,0
ONEWEB-0654,2023-029W,2026-06-14T09:48:24.353280,13.14503954,.0002146,87.8960,290.2585,93.5048,266.6327,0,U,55816,999,15905,.72536E-3,.282E-5,0
ONEWEB-0656,2023-029X,2026-06-14T13:16:12.453024,13.20773053,.0002308,87.9195,274.9546,92.9972,267.1425,0,U,55817,999,16080,.36184E-4,.28E-6,0
ONEWEB-0657,2023-029Y,2026-06-14T10:03:56.101248,13.19724713,.000251,87.9167,305.5260,104.1718,255.9694,0,U,55818,999,15854,.13821E-3,.68E-6,0
ONEWEB-0658,2023-029Z,2026-06-14T09:57:06.489216,13.19724803,.0001633,87.9175,305.5020,109.9360,250.1948,0,U,55819,999,15855,.2049E-3,.95E-6,0
ONEWEB-0660,2023-029AA,2026-06-14T09:16:26.027040,13.14503866,.0001571,87.8970,290.2560,96.4625,263.6683,0,U,55820,999,15903,-.211E-3,-.65E-6,0
ONEWEB-0661,2023-029AB,2026-06-14T06:27:28.074816,13.14502702,.0001651,87.8953,290.3246,92.8593,267.2726,0,U,55821,999,15900,.48805E-3,.194E-5,0
ONEWEB-0662,2023-029AC,2026-06-14T09:07:18.346080,13.14503002,.0001577,87.8950,290.3088,96.7180,263.4129,0,U,55822,999,15906,-.4609E-3,-.158E-5,0
ONEWEB-0663,2023-029AD,2026-06-14T08:37:45.862176,13.20868788,.0001525,87.9196,275.0649,104.9409,255.1893,0,U,55823,999,16077,.47937E-4,.33E-6,0
ONEWEB-0664,2023-029AE,2026-06-14T12:56:48.454080,13.20770890,.0001832,87.9181,275.0103,86.0994,274.0348,0,U,55824,999,16079,.19635E-3,.93E-6,0
ONEWEB-0665,2023-029AF,2026-06-14T10:02:07.283040,13.14502595,.0001547,87.8954,290.2758,100.5043,259.6261,0,U,55825,999,15904,.53132E-3,.21E-5,0
ONEWEB-0666,2023-029AG,2026-06-14T12:47:06.793728,13.20771700,.0002653,87.9181,275.0016,106.5231,253.6194,0,U,55826,999,16080,-.32061E-4,0,0
ONEWEB-0667,2023-029AH,2026-06-14T12:39:50.930784,13.20771790,.0001814,87.9197,274.9602,97.7839,262.3501,0,U,55827,999,16079,.10897E-3,.57E-6,0
ONEWEB-0669,2023-029AJ,2026-06-14T01:38:01.933152,13.20771623,.00022981,87.9190,275.0631,88.0781,272.0616,0,U,55828,999,16073,-.16235432E-3,-.53E-6,0
ONEWEB-0670,2023-029AK,2026-06-14T09:30:09.002592,13.14502983,.0001697,87.8949,290.2976,88.4227,271.7097,0,U,55829,999,15906,.12608E-3,.6E-6,0
ONEWEB-0671,2023-029AL,2026-06-14T09:50:16.118592,13.19724526,.0001679,87.9167,305.5290,96.2447,263.8877,0,U,55830,999,15853,-.21188E-4,.4E-7,0
ONEWEB-0672,2023-029AM,2026-06-14T06:58:01.157088,13.20772185,.0002239,87.9192,275.0120,99.8216,260.3170,0,U,55831,999,16076,.89158E-4,.49E-6,0
ONEWEB-0673,2023-029AN,2026-06-14T09:17:17.441088,13.19727188,.0001725,87.9173,305.5251,95.5660,264.5669,0,U,55832,999,15853,.44586E-4,.31E-6,0
ONEWEB-0674,2023-029AP,2026-06-14T08:44:28.004928,13.14503844,.0001725,87.8952,290.2806,87.1434,272.9893,0,U,55833,999,15904,.26687E-4,.23E-6,0
ONEWEB-0675,2023-029AQ,2026-06-14T09:38:54.641184,13.19725136,.0002101,87.9166,305.5321,104.5182,255.6184,0,U,55834,999,15855,.17944E-3,.85E-6,0
ONEWEB-0720,2023-029AR,2026-06-14T09:27:31.753728,13.19725056,.0001591,87.9165,305.5337,103.0160,257.1150,0,U,55835,999,15847,.16106E-3,.77E-6,0
ONEWEB-0537,2023-043A,2026-06-14T11:00:32.474016,13.16594874,.0002272,87.9097,229.3134,99.6743,260.4645,0,U,56046,999,15860,.28014E-3,.12E-5,0
ONEWEB-0538,2023-043B,2026-06-14T10:51:25.357248,13.16594318,.0002116,87.9099,229.3171,105.5248,254.6117,0,U,56047,999,15861,.6118E-4,.36E-6,0
